CTC1_L_00285001-01
1 17116U 23406ZB  26037.47804398  .00000000  00000+0  00000-0 0  9991
2 17116  60.0000   0.0000 0000000   0.0000   0.0000 15.18623352    11
CTC1_L_00285001-02
1 17117U 23465XU  26037.47804398  .00000000  00000+0  00000-0 0  9997
2 17117  60.0000   0.0000 0000000   0.0000  90.0000 15.18623352    11
CTC1_L_00285001-03
1 17118U 23570DQ  26037.47804398  .00000000  00000+0  00000-0 0  9995
2 17118  60.0000   0.0000 0000000   0.0000 180.0000 15.18623352    12
CTC1_L_00285001-04
1 17119U 25335GE  26037.47804398  .00000000  00000+0  00000-0 0  9997
2 17119  60.0000   0.0000 0000000   0.0000 270.0000 15.18623352    13
CTC1_L_00285002-01
1 17120U 23715SF  26037.47804398  .00000000  00000+0  00000-0 0  9999
2 17120  60.0000  12.0000 0000000   0.0000  12.0000 15.18623352    12
CTC1_L_00285002-02
1 17121U 22270CY  26037.47804398  .00000000  00000+0  00000-0 0  9995
2 17121  60.0000  12.0000 0000000   0.0000 102.0000 15.18623352    13
CTC1_L_00285002-03
1 17122U 24434NN  26037.47804398  .00000000  00000+0  00000-0 0  9990
2 17122  60.0000  12.0000 0000000   0.0000 192.0000 15.18623352    13
CTC1_L_00285002-04
1 17123U 26042PT  26037.47804398  .00000000  00000+0  00000-0 0  9998
2 17123  60.0000  12.0000 0000000   0.0000 282.0000 15.18623352    14
CTC1_L_00285003-01
1 17124U 23874VO  26037.47804398  .00000000  00000+0  00000-0 0  9999
2 17124  60.0000  24.0000 0000000   0.0000  24.0000 15.18623352    12
CTC1_L_00285003-02
1 17125U 25886BO  26037.47804398  .00000000  00000+0  00000-0 0  9995
2 17125  60.0000  24.0000 0000000   0.0000 114.0000 15.18623352    13
CTC1_L_00285003-03
1 17126U 24282OX  26037.47804398  .00000000  00000+0  00000-0 0  9995
2 17126  60.0000  24.0000 0000000   0.0000 204.0000 15.18623352    14
CTC1_L_00285003-04
1 17127U 24304AU  26037.47804398  .00000000  00000+0  00000-0 0  9991
2 17127  60.0000  24.0000 0000000   0.0000 294.0000 15.18623352    14
CTC1_L_00285004-01
1 17128U 25437SK  26037.47804398  .00000000  00000+0  00000-0 0  9990
2 17128  60.0000  36.0000 0000000   0.0000  36.0000 15.18623352    12
CTC1_L_00285004-02
1 17129U 26742DB  26037.47804398  .00000000  00000+0  00000-0 0  9991
2 17129  60.0000  36.0000 0000000   0.0000 126.0000 15.18623352    13
CTC1_L_00285004-03
1 17130U 25601EL  26037.47804398  .00000000  00000+0  00000-0 0  9996
2 17130  60.0000  36.0000 0000000   0.0000 216.0000 15.18623352    15
CTC1_L_00285004-04
1 17131U 26909DG  26037.47804398  .00000000  00000+0  00000-0 0  9999
2 17131  60.0000  36.0000 0000000   0.0000 306.0000 15.18623352    16
CTC1_L_00285005-01
1 17132U 25103WS  26037.47804398  .00000000  00000+0  00000-0 0  9995
2 17132  60.0000  48.0000 0000000   0.0000  48.0000 15.18623352    13
CTC1_L_00285005-02
1 17133U 26727FZ  26037.47804398  .00000000  00000+0  00000-0 0  9999
2 17133  60.0000  48.0000 0000000   0.0000 138.0000 15.18623352    14
CTC1_L_00285005-03
1 17134U 25626DZ  26037.47804398  .00000000  00000+0  00000-0 0  9997
2 17134  60.0000  48.0000 0000000   0.0000 228.0000 15.18623352    15
CTC1_L_00285005-04
1 17135U 22835BI  26037.47804398  .00000000  00000+0  00000-0 0  9997
2 17135  60.0000  48.0000 0000000   0.0000 318.0000 15.18623352    16
CTC1_L_00285006-01
1 17136U 22092NV  26037.47804398  .00000000  00000+0  00000-0 0  9993
2 17136  60.0000  60.0000 0000000   0.0000  60.0000 15.18623352    15
CTC1_L_00285006-02
1 17137U 23568OH  26037.47804398  .00000000  00000+0  00000-0 0  9993
2 17137  60.0000  60.0000 0000000   0.0000 150.0000 15.18623352    16
CTC1_L_00285006-03
1 17138U 25188JX  26037.47804398  .00000000  00000+0  00000-0 0  9994
2 17138  60.0000  60.0000 0000000   0.0000 240.0000 15.18623352    17
CTC1_L_00285006-04
1 17139U 25273UT  26037.47804398  .00000000  00000+0  00000-0 0  9990
2 17139  60.0000  60.0000 0000000   0.0000 330.0000 15.18623352    18
CTC1_L_00285007-01
1 17140U 23108VG  26037.47804398  .00000000  00000+0  00000-0 0  9997
2 17140  60.0000  72.0000 0000000   0.0000  72.0000 15.18623352    16
CTC1_L_00285007-02
1 17141U 22048KC  26037.47804398  .00000000  00000+0  00000-0 0  9990
2 17141  60.0000  72.0000 0000000   0.0000 162.0000 15.18623352    17
CTC1_L_00285007-03
1 17142U 25357LF  26037.47804398  .00000000  00000+0  00000-0 0  9997
2 17142  60.0000  72.0000 0000000   0.0000 252.0000 15.18623352    18
CTC1_L_00285007-04
1 17143U 23639YD  26037.47804398  .00000000  00000+0  00000-0 0  9999
2 17143  60.0000  72.0000 0000000   0.0000 342.0000 15.18623352    19
CTC1_L_00285008-01
1 17144U 26159SG  26037.47804398  .00000000  00000+0  00000-0 0  9990
2 17144  60.0000  84.0000 0000000   0.0000  84.0000 15.18623352    16
CTC1_L_00285008-02
1 17145U 22144BS  26037.47804398  .00000000  00000+0  00000-0 0  9991
2 17145  60.0000  84.0000 0000000   0.0000 174.0000 15.18623352    17
CTC1_L_00285008-03
1 17146U 25664NG  26037.47804398  .00000000  00000+0  00000-0 0  9992
2 17146  60.0000  84.0000 0000000   0.0000 264.0000 15.18623352    18
CTC1_L_00285008-04
1 17147U 22882LF  26037.47804398  .00000000  00000+0  00000-0 0  9992
2 17147  60.0000  84.0000 0000000   0.0000 354.0000 15.18623352    19
CTC1_L_00285009-01
1 17148U 22230VH  26037.47804398  .00000000  00000+0  00000-0 0  9990
2 17148  60.0000  96.0000 0000000   0.0000  96.0000 15.18623352    16
CTC1_L_00285009-02
1 17149U 24673LG  26037.47804398  .00000000  00000+0  00000-0 0  9994
2 17149  60.0000  96.0000 0000000   0.0000 186.0000 15.18623352    17
CTC1_L_00285009-03
1 17150U 23685HO  26037.47804398  .00000000  00000+0  00000-0 0  9998
2 17150  60.0000  96.0000 0000000   0.0000 276.0000 15.18623352    19
CTC1_L_00285009-04
1 17151U 22086BI  26037.47804398  .00000000  00000+0  00000-0 0  9993
2 17151  60.0000  96.0000 0000000   0.0000   6.0000 15.18623352    11
CTC1_L_00285010-01
1 17152U 25618GC  26037.47804398  .00000000  00000+0  00000-0 0  9998
2 17152  60.0000 108.0000 0000000   0.0000 108.0000 15.18623352    19
CTC1_L_00285010-02
1 17153U 24286BN  26037.47804398  .00000000  00000+0  00000-0 0  9999
2 17153  60.0000 108.0000 0000000   0.0000 198.0000 15.18623352    19
CTC1_L_00285010-03
1 17154U 23273VP  26037.47804398  .00000000  00000+0  00000-0 0  9995
2 17154  60.0000 108.0000 0000000   0.0000 288.0000 15.18623352    10
CTC1_L_00285010-04
1 17155U 22810ZB  26037.47804398  .00000000  00000+0  00000-0 0  9992
2 17155  60.0000 108.0000 0000000   0.0000  18.0000 15.18623352    12
CTC1_L_00285011-01
1 17156U 26353BJ  26037.47804398  .00000000  00000+0  00000-0 0  9999
2 17156  60.0000 120.0000 0000000   0.0000 120.0000 15.18623352    11
CTC1_L_00285011-02
1 17157U 22587HF  26037.47804398  .00000000  00000+0  00000-0 0  9995
2 17157  60.0000 120.0000 0000000   0.0000 210.0000 15.18623352    12
CTC1_L_00285011-03
1 17158U 22620ZK  26037.47804398  .00000000  00000+0  00000-0 0  9994
2 17158  60.0000 120.0000 0000000   0.0000 300.0000 15.18623352    13
CTC1_L_00285011-04
1 17159U 24972JQ  26037.47804398  .00000000  00000+0  00000-0 0  9997
2 17159  60.0000 120.0000 0000000   0.0000  30.0000 15.18623352    14
CTC1_L_00285012-01
1 17160U 25745FZ  26037.47804398  .00000000  00000+0  00000-0 0  9998
2 17160  60.0000 132.0000 0000000   0.0000 132.0000 15.18623352    12
CTC1_L_00285012-02
1 17161U 22839YQ  26037.47804398  .00000000  00000+0  00000-0 0  9990
2 17161  60.0000 132.0000 0000000   0.0000 222.0000 15.18623352    13
CTC1_L_00285012-03
1 17162U 26758MW  26037.47804398  .00000000  00000+0  00000-0 0  9995
2 17162  60.0000 132.0000 0000000   0.0000 312.0000 15.18623352    14
CTC1_L_00285012-04
1 17163U 24508ON  26037.47804398  .00000000  00000+0  00000-0 0  9997
2 17163  60.0000 132.0000 0000000   0.0000  42.0000 15.18623352    15
CTC1_L_00285013-01
1 17164U 26454PR  26037.47804398  .00000000  00000+0  00000-0 0  9990
2 17164  60.0000 144.0000 0000000   0.0000 144.0000 15.18623352    12
CTC1_L_00285013-02
1 17165U 25347W   26037.47804398  .00000000  00000+0  00000-0 0  9991
2 17165  60.0000 144.0000 0000000   0.0000 234.0000 15.18623352    13
CTC1_L_00285013-03
1 17166U 26549KV  26037.47804398  .00000000  00000+0  00000-0 0  9997
2 17166  60.0000 144.0000 0000000   0.0000 324.0000 15.18623352    14
CTC1_L_00285013-04
1 17167U 23059UI  26037.47804398  .00000000  00000+0  00000-0 0  9991
2 17167  60.0000 144.0000 0000000   0.0000  54.0000 15.18623352    15
CTC1_L_00285014-01
1 17168U 25228UL  26037.47804398  .00000000  00000+0  00000-0 0  9992
2 17168  60.0000 156.0000 0000000   0.0000 156.0000 15.18623352    12
CTC1_L_00285014-02
1 17169U 25738SU  26037.47804398  .00000000  00000+0  00000-0 0  9999
2 17169  60.0000 156.0000 0000000   0.0000 246.0000 15.18623352    13
CTC1_L_00285014-03
1 17170U 26159VF  26037.47804398  .00000000  00000+0  00000-0 0  9999
2 17170  60.0000 156.0000 0000000   0.0000 336.0000 15.18623352    15
CTC1_L_00285014-04
1 17171U 25814RF  26037.47804398  .00000000  00000+0  00000-0 0  9997
2 17171  60.0000 156.0000 0000000   0.0000  66.0000 15.18623352    16
CTC1_L_00285015-01
1 17172U 24979KV  26037.47804398  .00000000  00000+0  00000-0 0  9999
2 17172  60.0000 168.0000 0000000   0.0000 168.0000 15.18623352    13
CTC1_L_00285015-02
1 17173U 23848DQ  26037.47804398  .00000000  00000+0  00000-0 0  9994
2 17173  60.0000 168.0000 0000000   0.0000 258.0000 15.18623352    14
CTC1_L_00285015-03
1 17174U 25507WO  26037.47804398  .00000000  00000+0  00000-0 0  9999
2 17174  60.0000 168.0000 0000000   0.0000 348.0000 15.18623352    15
CTC1_L_00285015-04
1 17175U 25519FG  26037.47804398  .00000000  00000+0  00000-0 0  9993
2 17175  60.0000 168.0000 0000000   0.0000  78.0000 15.18623352    16
CTC1_L_00285016-01
1 17176U 22595YT  26037.47804398  .00000000  00000+0  00000-0 0  9995
2 17176  60.0000 180.0000 0000000   0.0000 180.0000 15.18623352    15
CTC1_L_00285016-02
1 17177U 23701ZH  26037.47804398  .00000000  00000+0  00000-0 0  9996
2 17177  60.0000 180.0000 0000000   0.0000 270.0000 15.18623352    16
